{
  "type": "FeatureCollection",
  "features": [
    {
      "type": "Feature",
      "properties": {
        "norad_id": 41581,
        "name": "INTELSAT 31 (IS-31)",
        "group": "intelsat",
        "lat": -0.029126276483537352,
        "lon": -145.33374350207723,
        "alt_km": 35778.7174187781,
        "timestamp": "2025-12-03T15:48:02.769284+00:00",
        "meta_object_name": "INTELSAT 31 (IS-31)",
        "meta_object_id": "2016-035A",
        "meta_epoch": "2025-12-02T09:32:38.891904",
        "meta_mean_motion": 1.00269687,
        "meta_eccentricity": 0.00019053,
        "meta_inclination": 0.0144,
        "meta_ra_of_asc_node": 272.373,
        "meta_arg_of_pericenter": 308.7593,
        "meta_mean_anomaly": 258.4788,
        "meta_ephemeris_type": 0,
        "meta_classification_type": "U",
        "meta_norad_cat_id": 41581,
        "meta_element_set_no": 999,
        "meta_rev_at_epoch": 3471,
        "meta_bstar": 0,
        "meta_mean_motion_dot": -1.3e-06,
        "meta_mean_motion_ddot": 0,
        "tle_line1": "1 41581U 16035A   25336.39767236 -.00000130  00000+0  00000+0 0  9999",
        "tle_line2": "2 41581   0.0144 272.3730 0001905 308.7593 258.4788  1.00269687 34710"
      },
      "geometry": {
        "type": "Point",
        "coordinates": [
          -145.33374350207723,
          -0.029126276483537352
        ]
      }
    },
    {
      "type": "Feature",
      "properties": {
        "norad_id": 41747,
        "name": "INTELSAT 36 (IS-36)",
        "group": "intelsat",
        "lat": 0.023528623439618937,
        "lon": 18.252025260355058,
        "alt_km": 35783.59280182772,
        "timestamp": "2025-12-03T15:48:02.769294+00:00",
        "meta_object_name": "INTELSAT 36 (IS-36)",
        "meta_object_id": "2016-053A",
        "meta_epoch": "2025-12-03T00:23:05.477568",
        "meta_mean_motion": 1.00270226,
        "meta_eccentricity": 0.00013731,
        "meta_inclination": 0.0123,
        "meta_ra_of_asc_node": 348.519,
        "meta_arg_of_pericenter": 330.1213,
        "meta_mean_anomaly": 187.7546,
        "meta_ephemeris_type": 0,
        "meta_classification_type": "U",
        "meta_norad_cat_id": 41747,
        "meta_element_set_no": 999,
        "meta_rev_at_epoch": 3398,
        "meta_bstar": 0,
        "meta_mean_motion_dot": -5e-08,
        "meta_mean_motion_ddot": 0,
        "tle_line1": "1 41747U 16053A   25337.01603562 -.00000005  00000+0  00000+0 0  9995",
        "tle_line2": "2 41747   0.0123 348.5190 0001373 330.1213 187.7546  1.00270226 33989"
      },
      "geometry": {
        "type": "Point",
        "coordinates": [
          18.252025260355058,
          0.023528623439618937
        ]
      }
    },
    {
      "type": "Feature",
      "properties": {
        "norad_id": 41945,
        "name": "INTELSAT 32E (IS-32E)",
        "group": "intelsat",
        "lat": -0.020693794821050427,
        "lon": -93.44294968241125,
        "alt_km": 35786.63150116718,
        "timestamp": "2025-12-03T15:48:02.769304+00:00",
        "meta_object_name": "INTELSAT 32E (IS-32E)",
        "meta_object_id": "2017-007B",
        "meta_epoch": "2025-12-03T06:42:04.893984",
        "meta_mean_motion": 1.00269637,
        "meta_eccentricity": 1.767e-05,
        "meta_inclination": 0.0289,
        "meta_ra_of_asc_node": 67.5531,
        "meta_arg_of_pericenter": 281.3283,
        "meta_mean_anomaly": 140.8405,
        "meta_ephemeris_type": 0,
        "meta_classification_type": "U",
        "meta_norad_cat_id": 41945,
        "meta_element_set_no": 999,
        "meta_rev_at_epoch": 3226,
        "meta_bstar": 0,
        "meta_mean_motion_dot": -2.5e-06,
        "meta_mean_motion_ddot": 0,
        "tle_line1": "1 41945U 17007B   25337.27922331 -.00000250  00000+0  00000+0 0  9993",
        "tle_line2": "2 41945   0.0289  67.5531 0000176 281.3283 140.8405  1.00269637 32261"
      },
      "geometry": {
        "type": "Point",
        "coordinates": [
          -93.44294968241125,
          -0.020693794821050427
        ]
      }
    },
    {
      "type": "Feature",
      "properties": {
        "norad_id": 42818,
        "name": "INTELSAT 35E (IS-35E)",
        "group": "intelsat",
        "lat": -0.03250158152118629,
        "lon": -84.73708025236829,
        "alt_km": 35777.16285362829,
        "timestamp": "2025-12-03T15:48:02.769315+00:00",
        "meta_object_name": "INTELSAT 35E (IS-35E)",
        "meta_object_id": "2017-041A",
        "meta_epoch": "2025-12-03T06:44:34.655424",
        "meta_mean_motion": 1.002709,
        "meta_eccentricity": 0.00023331,
        "meta_inclination": 0.0186,
        "meta_ra_of_asc_node": 326.2867,
        "meta_arg_of_pericenter": 287.6086,
        "meta_mean_anomaly": 245.1448,
        "meta_ephemeris_type": 0,
        "meta_classification_type": "U",
        "meta_norad_cat_id": 42818,
        "meta_element_set_no": 999,
        "meta_rev_at_epoch": 3085,
        "meta_bstar": 0,
        "meta_mean_motion_dot": -2.19e-06,
        "meta_mean_motion_ddot": 0,
        "tle_line1": "1 42818U 17041A   25337.28095666 -.00000219  00000+0  00000+0 0  9999",
        "tle_line2": "2 42818   0.0186 326.2867 0002333 287.6086 245.1448  1.00270900 30855"
      },
      "geometry": {
        "type": "Point",
        "coordinates": [
          -84.73708025236829,
          -0.03250158152118629
        ]
      }
    },
    {
      "type": "Feature",
      "properties": {
        "norad_id": 42950,
        "name": "INTELSAT 37E (IS-37E)",
        "group": "intelsat",
        "lat": -0.015746747365174462,
        "lon": -68.23366034366941,
        "alt_km": 35776.08128671761,
        "timestamp": "2025-12-03T15:48:02.769325+00:00",
        "meta_object_name": "INTELSAT 37E (IS-37E)",
        "meta_object_id": "2017-059A",
        "meta_epoch": "2025-12-03T06:59:39.630624",
        "meta_mean_motion": 1.00270828,
        "meta_eccentricity": 0.00034344,
        "meta_inclination": 0.0159,
        "meta_ra_of_asc_node": 312.1581,
        "meta_arg_of_pericenter": 294.5148,
        "meta_mean_anomaly": 272.6335,
        "meta_ephemeris_type": 0,
        "meta_classification_type": "U",
        "meta_norad_cat_id": 42950,
        "meta_element_set_no": 999,
        "meta_rev_at_epoch": 3010,
        "meta_bstar": 0,
        "meta_mean_motion_dot": -1.22e-06,
        "meta_mean_motion_ddot": 0,
        "tle_line1": "1 42950U 17059A   25337.29143091 -.00000122  00000+0  00000+0 0  9995",
        "tle_line2": "2 42950   0.0159 312.1581 0003434 294.5148 272.6335  1.00270828 30105"
      },
      "geometry": {
        "type": "Point",
        "coordinates": [
          -68.23366034366941,
          -0.015746747365174462
        ]
      }
    },
    {
      "type": "Feature",
      "properties": {
        "norad_id": 43632,
        "name": "AZERSPACE 2 (IS-38)",
        "group": "intelsat",
        "lat": 0.017433730278762116,
        "lon": -5.137263120250667,
        "alt_km": 35787.36565848375,
        "timestamp": "2025-12-03T15:48:02.769336+00:00",
        "meta_object_name": "AZERSPACE 2 (IS-38)",
        "meta_object_id": "2018-074A",
        "meta_epoch": "2025-12-03T01:59:05.629920",
        "meta_mean_motion": 1.00271401,
        "meta_eccentricity": 0.00016897,
        "meta_inclination": 0.0147,
        "meta_ra_of_asc_node": 335.5882,
        "meta_arg_of_pericenter": 279.2754,
        "meta_mean_anomaly": 252.1998,
        "meta_ephemeris_type": 0,
        "meta_classification_type": "U",
        "meta_norad_cat_id": 43632,
        "meta_element_set_no": 999,
        "meta_rev_at_epoch": 2648,
        "meta_bstar": 0,
        "meta_mean_motion_dot": 1.56e-06,
        "meta_mean_motion_ddot": 0,
        "tle_line1": "1 43632U 18074A   25337.08270405  .00000156  00000+0  00000+0 0  9994",
        "tle_line2": "2 43632   0.0147 335.5882 0001689 279.2754 252.1998  1.00271401 26488"
      },
      "geometry": {
        "type": "Point",
        "coordinates": [
          -5.137263120250667,
          0.017433730278762116
        ]
      }
    },
    {
      "type": "Feature",
      "properties": {
        "norad_id": 43633,
        "name": "HORIZONS-3E",
        "group": "intelsat",
        "lat": -0.008804406393462038,
        "lon": 118.746545067632,
        "alt_km": 35791.42977819786,
        "timestamp": "2025-12-03T15:48:02.769347+00:00",
        "meta_object_name": "HORIZONS-3E",
        "meta_object_id": "2018-074B",
        "meta_epoch": "2025-12-02T09:32:38.562720",
        "meta_mean_motion": 1.00268601,
        "meta_eccentricity": 0.00010808,
        "meta_inclination": 0.0303,
        "meta_ra_of_asc_node": 208.778,
        "meta_arg_of_pericenter": 80.6678,
        "meta_mean_anomaly": 94.2479,
        "meta_ephemeris_type": 0,
        "meta_classification_type": "U",
        "meta_norad_cat_id": 43633,
        "meta_element_set_no": 999,
        "meta_rev_at_epoch": 2636,
        "meta_bstar": 0,
        "meta_mean_motion_dot": -1e-07,
        "meta_mean_motion_ddot": 0,
        "tle_line1": "1 43633U 18074B   25336.39766855 -.00000010  00000+0  00000+0 0  9997",
        "tle_line2": "2 43633   0.0303 208.7780 0001080  80.6678  94.2479  1.00268601 26369"
      },
      "geometry": {
        "type": "Point",
        "coordinates": [
          118.746545067632,
          -0.008804406393462038
        ]
      }
    }
  ]
}